{
  "type": "FeatureCollection",
  "features": [
    {
      "type": "Feature",
      "properties": {
        "norad_id": 33886,
        "name": "IRIDIUM 33 DEB",
        "group": "iridium-33-debris",
        "lat": -30.507525534566398,
        "lon": 69.0011992052123,
        "alt_km": 772.3636010613836,
        "timestamp": "2025-12-03T10:52:57.839834+00:00",
        "meta_object_name": "IRIDIUM 33 DEB",
        "meta_object_id": "1997-051BF",
        "meta_epoch": "2025-12-02T18:50:03.765984",
        "meta_mean_motion": 14.36031496,
        "meta_eccentricity": 0.0012058,
        "meta_inclination": 86.3833,
        "meta_ra_of_asc_node": 71.4183,
        "meta_arg_of_pericenter": 279.8713,
        "meta_mean_anomaly": 194.8492,
        "meta_ephemeris_type": 0,
        "meta_classification_type": "U",
        "meta_norad_cat_id": 33886,
        "meta_element_set_no": 999,
        "meta_rev_at_epoch": 87909,
        "meta_bstar": 0.00028159,
        "meta_mean_motion_dot": 8.38e-06,
        "meta_mean_motion_ddot": 0,
        "tle_line1": "1 33886U 97051BF  25336.78476581  .00000838  00000+0  28159-3 0  9991",
        "tle_line2": "2 33886  86.3833  71.4183 0012058 279.8713 194.8492 14.36031496879095"
      },
      "geometry": {
        "type": "Point",
        "coordinates": [
          69.0011992052123,
          -30.507525534566398
        ]
      }
    },
    {
      "type": "Feature",
      "properties": {
        "norad_id": 33887,
        "name": "IRIDIUM 33 DEB",
        "group": "iridium-33-debris",
        "lat": -46.47769452899835,
        "lon": -168.7046625916398,
        "alt_km": 772.5726109246871,
        "timestamp": "2025-12-03T10:52:57.839845+00:00",
        "meta_object_name": "IRIDIUM 33 DEB",
        "meta_object_id": "1997-051BG",
        "meta_epoch": "2025-12-03T03:25:59.530368",
        "meta_mean_motion": 14.3720697,
        "meta_eccentricity": 0.0004033,
        "meta_inclination": 86.3052,
        "meta_ra_of_asc_node": 7.5276,
        "meta_arg_of_pericenter": 272.7551,
        "meta_mean_anomaly": 148.8319,
        "meta_ephemeris_type": 0,
        "meta_classification_type": "U",
        "meta_norad_cat_id": 33887,
        "meta_element_set_no": 999,
        "meta_rev_at_epoch": 88027,
        "meta_bstar": 0.00019308,
        "meta_mean_motion_dot": 5.94e-06,
        "meta_mean_motion_ddot": 0,
        "tle_line1": "1 33887U 97051BG  25337.14305012  .00000594  00000+0  19308-3 0  9998",
        "tle_line2": "2 33887  86.3052   7.5276 0004033 272.7551 148.8319 14.37206970880279"
      },
      "geometry": {
        "type": "Point",
        "coordinates": [
          -168.7046625916398,
          -46.47769452899835
        ]
      }
    },
    {
      "type": "Feature",
      "properties": {
        "norad_id": 33953,
        "name": "IRIDIUM 33 DEB",
        "group": "iridium-33-debris",
        "lat": -20.30031334423588,
        "lon": -120.85100704177803,
        "alt_km": 709.4945509166537,
        "timestamp": "2025-12-03T10:52:57.839856+00:00",
        "meta_object_name": "IRIDIUM 33 DEB",
        "meta_object_id": "1997-051BN",
        "meta_epoch": "2025-12-02T16:23:53.820384",
        "meta_mean_motion": 14.55150368,
        "meta_eccentricity": 0.0018426,
        "meta_inclination": 86.3853,
        "meta_ra_of_asc_node": 58.1431,
        "meta_arg_of_pericenter": 133.5713,
        "meta_mean_anomaly": 354.392,
        "meta_ephemeris_type": 0,
        "meta_classification_type": "U",
        "meta_norad_cat_id": 33953,
        "meta_element_set_no": 999,
        "meta_rev_at_epoch": 88157,
        "meta_bstar": 0.0017185,
        "meta_mean_motion_dot": 7.461e-05,
        "meta_mean_motion_ddot": 0,
        "tle_line1": "1 33953U 97051BN  25336.68326181  .00007461  00000+0  17185-2 0  9990",
        "tle_line2": "2 33953  86.3853  58.1431 0018426 133.5713 354.3920 14.55150368881577"
      },
      "geometry": {
        "type": "Point",
        "coordinates": [
          -120.85100704177803,
          -20.30031334423588
        ]
      }
    },
    {
      "type": "Feature",
      "properties": {
        "norad_id": 33960,
        "name": "IRIDIUM 33 DEB",
        "group": "iridium-33-debris",
        "lat": 81.4618674015499,
        "lon": 88.00535983030753,
        "alt_km": 603.6709214255725,
        "timestamp": "2025-12-03T10:52:57.839868+00:00",
        "meta_object_name": "IRIDIUM 33 DEB",
        "meta_object_id": "1997-051BV",
        "meta_epoch": "2025-12-03T04:01:29.493408",
        "meta_mean_motion": 14.84361166,
        "meta_eccentricity": 0.0007033,
        "meta_inclination": 86.2527,
        "meta_ra_of_asc_node": 294.0241,
        "meta_arg_of_pericenter": 74.9059,
        "meta_mean_anomaly": 296.7867,
        "meta_ephemeris_type": 0,
        "meta_classification_type": "U",
        "meta_norad_cat_id": 33960,
        "meta_element_set_no": 999,
        "meta_rev_at_epoch": 88725,
        "meta_bstar": 0.0043684,
        "meta_mean_motion_dot": 0.00036868,
        "meta_mean_motion_ddot": 0,
        "tle_line1": "1 33960U 97051BV  25337.16770247  .00036868  00000+0  43684-2 0  9994",
        "tle_line2": "2 33960  86.2527 294.0241 0007033  74.9059 296.7867 14.84361166887257"
      },
      "geometry": {
        "type": "Point",
        "coordinates": [
          88.00535983030753,
          81.4618674015499
        ]
      }
    },
    {
      "type": "Feature",
      "properties": {
        "norad_id": 33966,
        "name": "IRIDIUM 33 DEB",
        "group": "iridium-33-debris",
        "lat": 24.01380872267704,
        "lon": -131.59853428864318,
        "alt_km": 724.8750248963852,
        "timestamp": "2025-12-03T10:52:57.839879+00:00",
        "meta_object_name": "IRIDIUM 33 DEB",
        "meta_object_id": "1997-051CB",
        "meta_epoch": "2025-12-03T03:37:07.733280",
        "meta_mean_motion": 14.49525905,
        "meta_eccentricity": 0.0006365,
        "meta_inclination": 86.3933,
        "meta_ra_of_asc_node": 50.1415,
        "meta_arg_of_pericenter": 222.9834,
        "meta_mean_anomaly": 154.5391,
        "meta_ephemeris_type": 0,
        "meta_classification_type": "U",
        "meta_norad_cat_id": 33966,
        "meta_element_set_no": 999,
        "meta_rev_at_epoch": 88303,
        "meta_bstar": 0.00080992,
        "meta_mean_motion_dot": 3.124e-05,
        "meta_mean_motion_ddot": 0,
        "tle_line1": "1 33966U 97051CB  25337.15078395  .00003124  00000+0  80992-3 0  9997",
        "tle_line2": "2 33966  86.3933  50.1415 0006365 222.9834 154.5391 14.49525905883031"
      },
      "geometry": {
        "type": "Point",
        "coordinates": [
          -131.59853428864318,
          24.01380872267704
        ]
      }
    },
    {
      "type": "Feature",
      "properties": {
        "norad_id": 34071,
        "name": "IRIDIUM 33 DEB",
        "group": "iridium-33-debris",
        "lat": -46.716855133074816,
        "lon": -154.24551993304294,
        "alt_km": 734.9922897691085,
        "timestamp": "2025-12-03T10:52:57.839889+00:00",
        "meta_object_name": "IRIDIUM 33 DEB",
        "meta_object_id": "1997-051CE",
        "meta_epoch": "2025-12-03T03:12:46.088064",
        "meta_mean_motion": 14.49393252,
        "meta_eccentricity": 0.0009475,
        "meta_inclination": 86.3467,
        "meta_ra_of_asc_node": 22.0034,
        "meta_arg_of_pericenter": 133.6126,
        "meta_mean_anomaly": 226.5866,
        "meta_ephemeris_type": 0,
        "meta_classification_type": "U",
        "meta_norad_cat_id": 34071,
        "meta_element_set_no": 999,
        "meta_rev_at_epoch": 88195,
        "meta_bstar": 0.00081893,
        "meta_mean_motion_dot": 3.151e-05,
        "meta_mean_motion_ddot": 0,
        "tle_line1": "1 34071U 97051CE  25337.13386676  .00003151  00000+0  81893-3 0  9998",
        "tle_line2": "2 34071  86.3467  22.0034 0009475 133.6126 226.5866 14.49393252881957"
      },
      "geometry": {
        "type": "Point",
        "coordinates": [
          -154.24551993304294,
          -46.716855133074816
        ]
      }
    },
    {
      "type": "Feature",
      "properties": {
        "norad_id": 34077,
        "name": "IRIDIUM 33 DEB",
        "group": "iridium-33-debris",
        "lat": -80.79798788456846,
        "lon": 32.642876782045576,
        "alt_km": 692.575216275728,
        "timestamp": "2025-12-03T10:52:57.839900+00:00",
        "meta_object_name": "IRIDIUM 33 DEB",
        "meta_object_id": "1997-051CL",
        "meta_epoch": "2025-12-03T04:49:49.512864",
        "meta_mean_motion": 14.64572021,
        "meta_eccentricity": 0.0010961,
        "meta_inclination": 86.3873,
        "meta_ra_of_asc_node": 55.7079,
        "meta_arg_of_pericenter": 69.3732,
        "meta_mean_anomaly": 320.4311,
        "meta_ephemeris_type": 0,
        "meta_classification_type": "U",
        "meta_norad_cat_id": 34077,
        "meta_element_set_no": 999,
        "meta_rev_at_epoch": 88193,
        "meta_bstar": 0.0022894,
        "meta_mean_motion_dot": 0.0001219,
        "meta_mean_motion_ddot": 0,
        "tle_line1": "1 34077U 97051CL  25337.20126751  .00012190  00000+0  22894-2 0  9996",
        "tle_line2": "2 34077  86.3873  55.7079 0010961  69.3732 320.4311 14.64572021881933"
      },
      "geometry": {
        "type": "Point",
        "coordinates": [
          32.642876782045576,
          -80.79798788456846
        ]
      }
    }
  ]
}